ADRAS-J                 
1 58992U 24034A   24267.92442877  .00009513  00000+0  84855-3 0  9990
2 58992  98.2238 245.5708 0045144  84.1234 276.5129 14.95420560 32618
